NORAD_CAT_ID,OBJECT_NAME,OBJECT_TYPE,EPOCH,MEAN_MOTION,ECCENTRICITY,INCLINATION,RA_OF_ASC_NODE,ARG_OF_PERICENTER,MEAN_ANOMALY,BSTAR,MEAN_MOTION_DOT,MEAN_MOTION_DDOT,TLE_LINE0,TLE_LINE1,TLE_LINE2,SEMIMAJOR_AXIS,PERIOD,APOGEE,PERIGEE,DECAYED
52836.0,STARLINK-4043,PAYLOAD,2022-08-19 14:00:01,15.08805773,0.0001541,53.2162,101.5463,60.2825,313.4227,0.0032094,0.00051112,0.0,0 STARLINK-4043,1 52836U 22062G   22231.58334491  .00051112  00000-0  32094-2 0  9993,2 52836  53.2162 101.5463 0001541  60.2825 313.4227 15.08805773  1309,6917.985,95.44,540.9159999999998,538.784,0.0
52836.0,STARLINK-4043,PAYLOAD,2022-08-19 16:00:00,15.08828327,0.0001571,53.2165,101.1724,60.662,45.929,0.0011899,0.00018694,0.0,0 STARLINK-4043,1 52836U 22062G   22231.66667824  .00018694  00000-0  11899-2 0  9999,2 52836  53.2165 101.1724 0001571  60.6620  45.9290 15.08828327  9820,6917.916,95.438,540.868,538.694,0.0
52836.0,STARLINK-4043,PAYLOAD,2022-08-19 22:00:00,15.08830952,0.0001730999999999,53.2164,100.0517,55.0905,330.1815,-0.00064472,-0.00010532,0.0,0 STARLINK-4043,1 52836U 22062G   22231.91667824 -.00010532  00000-0 -64472-3 0  9998,2 52836  53.2164 100.0517 0001731  55.0905 330.1815 15.08830952  1303,6917.908,95.438,540.971,538.576,0.0
52836.0,STARLINK-4043,PAYLOAD,2022-08-20 08:00:01,15.08840402,0.0001701,53.2168,98.1803,57.911,71.8412,-0.0029183,-0.00046435,0.0,0 STARLINK-4043,1 52836U 22062G   22232.33334491 -.00046435  00000-0 -29183-2 0  9996,2 52836  53.2168  98.1803 0001701  57.9110  71.8412 15.08840402  9927,6917.879,95.438,540.9209999999998,538.567,0.0
52836.0,STARLINK-4043,PAYLOAD,2022-08-20 14:00:01,15.08802236,0.0001704,53.2169,97.0573,63.3967,345.0425,0.0026873,0.00042696,0.0,0 STARLINK-4043,1 52836U 22062G   22232.58334491  .00042696  00000-0  26873-2 0  9999,2 52836  53.2169  97.0573 0001704  63.3967 345.0425 15.08802236  1301,6917.996,95.44,541.04,538.682,0.0
52836.0,STARLINK-4043,PAYLOAD,2022-08-20 22:00:00,15.08824356,0.0001857,53.217,95.5628,57.9544,2.0504,-0.00045469,-7.514e-05,0.0,0 STARLINK-4043,1 52836U 22062G   22232.91667824 -.00007514  00000-0 -45469-3 0  9990,2 52836  53.2170  95.5628 0001857  57.9544   2.0504 15.08824356  1301,6917.928000000001,95.439,541.078,538.509,0.0
52836.0,STARLINK-4043,PAYLOAD,2022-08-21 14:00:01,15.08822642,0.0001721999999999,53.2172,92.5685,65.2381,17.9214,0.0021035999999999,0.00033334,0.0,0 STARLINK-4043,1 52836U 22062G   22233.58334491  .00033334  00000-0  21036-2 0  9995,2 52836  53.2172  92.5685 0001722  65.2381  17.9214 15.08822642  1304,6917.933000000001,95.439,540.99,538.607,0.0
52836.0,STARLINK-4043,PAYLOAD,2022-08-21 22:00:00,15.08836788,0.0001849,53.2171,91.0741,59.3589,35.3877,-0.00029381,-4.961e-05,0.0,0 STARLINK-4043,1 52836U 22062G   22233.91667824 -.00004961  00000-0 -29381-3 0  9999,2 52836  53.2171  91.0741 0001849  59.3589  35.3877 15.08836788 10163,6917.89,95.438,541.034,538.476,0.0
52836.0,STARLINK-4043,PAYLOAD,2022-08-22 12:00:00,15.08821028,0.0001678,53.2169,88.4537,66.311,318.7331,0.0031653,0.00050422,0.0,0 STARLINK-4043,1 52836U 22062G   22234.50001157  .00050422  00000-0  31653-2 0  9991,2 52836  53.2169  88.4537 0001678  66.3110 318.7331 15.08821028  1301,6917.938,95.439,540.964,538.643,0.0
52836.0,STARLINK-4043,PAYLOAD,2022-08-22 22:00:00,15.08845476,0.0001824,53.2169,86.5852,60.9887,68.5529,2.2016e-05,6.2e-07,0.0,0 STARLINK-4043,1 52836U 22062G   22234.91667824  .00000062  00000-0  22016-4 0  9995,2 52836  53.2169  86.5852 0001824  60.9887  68.5529 15.08845476 10317,6917.864000000001,95.437,540.99,538.467,0.0
52836.0,STARLINK-4043,PAYLOAD,2022-08-23 14:00:01,15.08825259,0.0001629,53.2167,83.5909,68.4326,84.3076,0.00085115,0.00013279,0.0,0 STARLINK-4043,1 52836U 22062G   22235.58334491  .00013279  00000-0  85115-3 0  9992,2 52836  53.2167  83.5909 0001629  68.4326  84.3076 15.08825259  1308,6917.925,95.438,540.9169999999998,538.664,0.0
52836.0,STARLINK-4043,PAYLOAD,2022-08-23 20:00:01,15.08834642,0.0001721999999999,53.2164,82.4701,62.4502,8.9756,-0.0014167,-0.00022761,0.0,0 STARLINK-4043,1 52836U 22062G   22235.83334491 -.00022761  00000-0 -14167-2 0  9996,2 52836  53.2164  82.4701 0001722  62.4502   8.9756 15.08834642 10456,6917.897,95.438,540.953,538.571,0.0
52836.0,STARLINK-4043,PAYLOAD,2022-08-23 22:00:01,15.08819786,0.0001746,53.2164,82.0963,61.1018,103.286,0.0004469999999999,6.829e-05,0.0,0 STARLINK-4043,1 52836U 22062G   22235.91668981  .00006829  00000-0  44700-3 0  9991,2 52836  53.2164  82.0963 0001746  61.1018 103.2860 15.08819786  1307,6917.941999999999,95.439,541.015,538.599,0.0
52836.0,STARLINK-4043,PAYLOAD,2022-08-24 14:00:01,15.08835989,0.0001672,53.2162,79.1019,69.807,117.6768,0.00050399,7.741e-05,0.0,0 STARLINK-4043,1 52836U 22062G   22236.58334491  .00007741  00000-0  50399-3 0  9996,2 52836  53.2162  79.1019 0001672  69.8070 117.6768 15.08835989  1304,6917.893,95.438,540.914,538.601,0.0
52836.0,STARLINK-4043,PAYLOAD,2022-08-24 16:00:00,15.0884849,0.0001682,53.2161,78.7283,68.0685,212.3093,-0.0012202,-0.0001966,0.0,0 STARLINK-4043,1 52836U 22062G   22236.66667824 -.00019660  00000-0 -12202-2 0  9999,2 52836  53.2161  78.7283 0001682  68.0685 212.3093 15.08848490 10579,6917.854,95.437,540.883,538.556,0.0
52836.0,STARLINK-4043,PAYLOAD,2022-08-24 22:00:00,15.08824524,0.0001788,53.216,77.6073,61.6827,137.3977,0.0011485999999999,0.00018032,0.0,0 STARLINK-4043,1 52836U 22062G   22236.91667824  .00018032  00000-0  11486-2 0  9990,2 52836  53.2160  77.6073 0001788  61.6827 137.3977 15.08824524  1307,6917.928000000001,95.439,541.03,538.556,0.0
52836.0,STARLINK-4043,PAYLOAD,2022-08-25 14:00:01,15.0882589,0.000172,53.2165,74.6085,69.6012,152.6616,0.0042149,0.00067408,0.0,0 STARLINK-4043,1 52836U 22062G   22237.58334491  .00067408  00000-0  42149-2 0  9996,2 52836  53.2165  74.6085 0001720  69.6012 152.6616 15.08825890  1309,6917.924,95.438,540.9780000000002,538.599,0.0
52836.0,STARLINK-4043,PAYLOAD,2022-08-25 22:00:00,15.08828999,0.0001851999999999,53.2159,73.1179,61.8078,172.0549,0.0016295,0.00025733,0.0,0 STARLINK-4043,1 52836U 22062G   22237.91667824  .00025733  00000-0  16295-2 0  9990,2 52836  53.2159  73.1179 0001852  61.8078 172.0549 15.08828999 10766,6917.9140000000025,95.438,541.06,538.498,0.0
52836.0,STARLINK-4043,PAYLOAD,2022-08-26 14:00:01,15.08859383,0.0001781,53.2161,70.123,69.5512,187.5705,-2.652300000000001e-05,-7.1e-06,0.0,0 STARLINK-4043,1 52836U 22062G   22238.58335648 -.00000710  00000-0 -26523-4 0  9997,2 52836  53.2161  70.1230 0001781  69.5512 187.5705 15.08859383  1309,6917.821,95.436,540.918,538.4540000000002,0.0
52836.0,STARLINK-4043,PAYLOAD,2022-08-26 20:00:01,15.08852979,0.0001873,53.216,69.0021,63.1022,112.6711,-0.00027035,-4.59e-05,0.0,0 STARLINK-4043,1 52836U 22062G   22238.83334491 -.00004590  00000-0 -27035-3 0  9998,2 52836  53.2160  69.0021 0001873  63.1022 112.6711 15.08852979 10907,6917.840999999999,95.437,541.001,538.41,0.0
52836.0,STARLINK-4043,PAYLOAD,2022-08-26 22:00:00,15.08840499,0.0001889999999999,53.2162,68.6282,61.7736,206.9056,0.0015156,0.00023916,0.0,0 STARLINK-4043,1 52836U 22062G   22238.91667824  .00023916  00000-0  15156-2 0  9997,2 52836  53.2162  68.6282 0001890  61.7736 206.9056 15.08840499  1305,6917.879,95.438,541.0509999999998,538.436,0.0
52836.0,STARLINK-4043,PAYLOAD,2022-08-27 14:00:01,15.08845268,0.0001706999999999,53.2166,65.6335,68.1092,223.7731,-0.00037767,-6.295e-05,0.0,0 STARLINK-4043,1 52836U 22062G   22239.58334491 -.00006295  00000-0 -37767-3 0  9998,2 52836  53.2166  65.6335 0001707  68.1092 223.7731 15.08845268  1304,6917.864000000001,95.437,540.91,538.548,0.0
52836.0,STARLINK-4043,PAYLOAD,2022-08-27 22:00:00,15.08819303,0.0001831999999999,53.2166,64.1386,60.5906,242.8941,0.0023745,0.00037683,0.0,0 STARLINK-4043,1 52836U 22062G   22239.91667824  .00037683  00000-0  23745-2 0  9997,2 52836  53.2166  64.1386 0001832  60.5906 242.8941 15.08819303 11063,6917.944,95.439,541.076,538.5409999999998,0.0
52836.0,STARLINK-4043,PAYLOAD,2022-08-28 14:00:01,15.08843708,0.0001614,53.2171,61.1441,67.0874,259.5881,-0.001463,-0.00023499,0.0,0 STARLINK-4043,1 52836U 22062G   22240.58334491 -.00023499  00000-0 -14630-2 0  9998,2 52836  53.2171  61.1441 0001614  67.0874 259.5881 15.08843708 11167,6917.869000000002,95.437,540.851,538.618,0.0
52836.0,STARLINK-4043,PAYLOAD,2022-08-28 22:00:00,15.08807145,0.0001712,53.217,59.6492,59.1495,279.1195,0.0026000999999999,0.00041298,0.0,0 STARLINK-4043,1 52836U 22062G   22240.91667824  .00041298  00000-0  26001-2 0  9994,2 52836  53.2170  59.6492 0001712  59.1495 279.1195 15.08807145  1300,6917.981,95.44,541.03,538.661,0.0
52836.0,STARLINK-4043,PAYLOAD,2022-08-29 14:00:01,15.08849258,0.0001571,53.2174,56.655,67.3501,294.0696,-0.0011662,-0.00018805,0.0,0 STARLINK-4043,1 52836U 22062G   22241.58334491 -.00018805  00000-0 -11662-2 0  9996,2 52836  53.2174  56.6550 0001571  67.3501 294.0696 15.08849258  1301,6917.852,95.437,540.804,538.63,0.0
52836.0,STARLINK-4043,PAYLOAD,2022-08-29 16:00:00,15.08852559,0.0001612,53.2172,56.2814,64.7237,29.5967,-0.0017550999999999,-0.00028122,0.0,0 STARLINK-4043,1 52836U 22062G   22241.66667824 -.00028122  00000-0 -17551-2 0  9990,2 52836  53.2172  56.2814 0001612  64.7237  29.5967 15.08852559 11335,6917.842,95.437,540.822,538.592,0.0
52836.0,STARLINK-4043,PAYLOAD,2022-08-29 22:00:00,15.08819122,0.0001666999999999,53.2172,55.16,60.0413,312.9843,0.0027391,0.0004355,0.0,0 STARLINK-4043,1 52836U 22062G   22241.91667824  .00043550  00000-0  27391-2 0  9991,2 52836  53.2172  55.1600 0001667  60.0413 312.9843 15.08819122  1308,6917.944,95.439,540.962,538.656,0.0
52836.0,STARLINK-4043,PAYLOAD,2022-08-30 06:00:00,15.08838582,0.0001520999999999,53.2172,53.662,66.6014,318.0188,0.00076127,0.00011848,0.0,0 STARLINK-4043,1 52836U 22062G   22242.25001157  .00011848  00000-0  76127-3 0  9997,2 52836  53.2172  53.6620 0001521  66.6014 318.0188 15.08838582 11425,6917.885,95.438,540.802,538.698,0.0
